#dP2023  9 20  0  0  0.00000000      96 __u+U ITR00 FIT  IAC
## 2280 259200.00000000   900.00000000 60207 0.0000000000000
+  120   C06C07C08C09C10C11C12C13C14C16C19C20C21C22C23C24C25
+        C26C27C28C29C30C32C33C34C35C36C37C38C39C40C41C42C43
+        C44C45C46E02E03E04E05E07E08E09E10E11E12E13E14E15E18
+        E19E21E24E25E26E27E30E31E33E34E36G01G02G03G04G05G06
+        G07G08G09G10G11G12G13G14G15G16G17G18G19G20G21G22G23
+        G24G25G26G27G28G29G30G31G32J02J03J04R01R02R03R04R05
+        R07R08R09R11R12R13R14R15R16R17R18R19R20R21R22R24R25
+        R26  0  0  0  0  0  0  0  0  0  0  0  0  0  0  0  0
++         9  8  9  9  6  7  7  9  8 10  6  7  7  5  6  8  8
++         6  7  6  6  7  8  7  6  7  6  8  7  8  8  7  5  6
++         7  5  7  6  5  4  5  5  7  4  5  5  6  5  5  6  5
++         6  6  6  5  5  6  5  4  5  5  7  5  6  6  4  5  6
++         5  5  4  5  7  6  6  6  6  6  6  6  6  5  5  6  6
++         5  6  6  5  6  6  5  6  5  8  8  6  6  6  5  7  7
++         5  5  6  5  6  5  6  5  6  5  6  8  6  7  7  7  6
++         7  0  0  0  0  0  0  0  0  0  0  0  0  0  0  0  0
%c M  cc GPS ccc cccc cccc cccc cccc ccccc ccccc ccccc ccccc
%c cc cc ccc ccc cccc cccc cccc cccc ccccc ccccc ccccc ccccc
%f  0.0000000  0.000000000  0.00000000000  0.000000000000000
%f  0.0000000  0.000000000  0.00000000000  0.000000000000000
%i    0    0    0    0      0      0      0      0         0
%i    0    0    0    0      0      0      0      0         0
/* INFORMATION & ANALYSIS CENTER (IAC)      ULTRA-RAPID DATA
/* S/V CLOCKS ARE ALIGNED TO GNSS TIME                      
/* G:C1WC2W R:C1PC2P E:C1XC5X C:C2IC6I J:C1CC2S             
/* PCV:IGS20_2274 OL/AL:FES2004  NONE     YN ORB:CoN CLK:CoN
*  2023 09 20  2 30  0.00000000
PC06 -17775.710822  34360.829003 -17095.846480     41.744297
PC07  -4480.420118  36310.995581 -20691.798080    -31.785437
PC08  -7912.214360  19080.549340  36728.353089    337.113283
PC09 -12766.075300  33063.014438 -22845.832995    144.306755
PC10   2276.863731  38973.837840 -14874.664990   -184.120081
PC11 -19720.713917  11478.858879 -15974.538752    841.167252
PC12 -13212.917316  -7940.495443 -23220.870884    930.988646
PC13   -482.416311  22208.412102  35992.765256    354.690321
PC14 -16683.705915   1569.178310  22328.906474    437.622313
PC16 -22026.897539  33802.318560 -12529.939802    -88.089683
PC19  11225.241325 -11519.864020 -22791.716842   -970.435811
PC20  18983.014788   6802.656966 -19277.756134    269.719164
PC21 -15875.895754 -22659.176600   3730.615473   -971.086867
PC22  -3382.577607 -24263.065299 -13396.796662   -300.217064
PC23  -5189.887640  16028.183631 -22236.724928   -866.770355
PC24 -27420.128787  -3046.616860   4093.279310    410.496142
PC25 -22213.947436  10159.076012 -13481.476521    215.070549
PC26 -16922.717922 -12719.084625  18151.356117   -180.156790
PC27   7799.741412  16076.280831  21417.659748    201.742689
PC28  -6133.523999  24992.921089  10788.097122    151.436771
PC29  17534.895999 -20051.311243   8326.093415    176.877338
PC30  17984.177309  -1940.563948  21239.663775     -5.175265
PC32  15988.000085  22580.718893  -3597.943183   -528.375019
PC33 -11276.622992  11465.983944  22798.703785   -967.187292
PC34 -18444.001593   3461.676378 -20668.257292    263.319537
PC35   5218.351251 -25228.447003 -10699.520903    542.799743
PC36  23021.452094  -9196.209803  12850.967049   -217.815358
PC37  15889.107320  13417.013380 -18605.794770   -831.673539
PC38 -17095.603198  18599.691439  33743.904664    105.919268
PC39 -23768.383150  34258.181899  -7053.807561     -4.855380
PC40  -8364.439876  32969.656972 -24716.358440    -37.126177
PC41   2827.610368  23989.742562  14011.836888   -877.284992
PC42 -19297.106054  -8283.435012  18423.419841   -542.680535
PC43 -17902.998189  19389.934053  -9100.377416     40.499375
PC44  -8413.755640 -15976.616254 -21282.449749    236.791867
PC45   4609.224775 -15971.168126  22421.106770    -27.430882
PC46  27686.780274   2242.875499  -2902.804596    -85.596499
PE02 -21969.774301 -18988.343208   5703.408303     64.063795
PE03 -11804.634400 -20167.016381  18166.382623    -57.585284
PE04  17024.894927   -934.822505 -24195.456076   -215.979570
PE05    285.746281 -29558.048681   1568.182291     19.979354
PE07 -12425.014826  21370.405459  16274.221738    -76.112691
PE08 -16868.791124    388.175305  24313.517493   -148.928953
PE09  12373.649006 -21282.342729 -16448.939496   -162.570197
PE10  26867.210091 -12194.919796   2466.643299   -565.040958
PE11  22538.339199 -17445.846987  -7999.724085   2959.717405
PE12  26730.768623  -5444.972244  11477.342201   -704.468164
PE13 -22966.175284  17180.760125   7310.088890    -19.672157
PE14 -16746.917972 -15761.362403 -22008.962758    345.363995
PE15 -26603.392496   5189.686685 -11885.762699    -54.630225
PE18  16151.323243    248.400639  19052.035546    551.053738
PE19  10341.116160  22263.284551 -16541.472385  -1595.103812
PE21   6143.637560  20627.819396 -20315.717441   -553.628652
PE24  14693.988879  -9966.256343  23680.096092   -331.095085
PE25  -5752.644759 -20546.790168  20525.766943     -2.061745
PE26  -5130.322054  18912.706005  22182.425232    227.574030
PE27 -14094.440226  10425.702220 -23840.317042   -154.299104
PE30 -25887.839304  -6193.750648 -12937.281625   -514.145114
PE31  25810.185935   5792.855734  13299.742521     -5.505248
PE33  14059.930348  10080.074230  24021.102286     -0.351929
PE34 -14628.032057  -9655.440619 -23855.626597    -67.975577
PE36   5952.990847 -18949.124214 -21947.860526   -118.647121
PG01   5436.988108 -16996.243377 -19896.591581    165.104515
PG02  12024.429419 -18566.951145 -14071.940639   -551.901494
PG03  -5464.229884 -18499.164173 -18452.514346   -125.721125
PG04    322.125053 -26294.655073   3226.969724    161.059815
PG05  -9892.850802  11462.369455  21645.995926   -143.382237
PG06 -24189.551150   4279.999096 -10155.793860    547.052097
PG07 -12493.415913 -10823.002476  21343.724728     62.507712
PG08   6076.811928 -24519.933922   7432.707871   -143.122969
PG09  -7085.854955 -22878.448816  11342.220737    -55.014146
PG10  23686.596645  10306.365538  -6693.612593    -54.075363
PG11 -23327.054438  12319.860308   2842.522568   -377.094669
PG12    685.647596  17933.698898 -19878.387888   -426.725799
PG13 -13101.322420  18636.631604  13278.511663    574.589963
PG14 -22991.920519 -12933.577713  -3773.578783    190.080592
PG15  -2398.234670  25510.137976   6023.933497     79.200368
PG16  15346.731628  -6052.108914  20601.752030   -451.611680
PG17 -13263.709387  -8611.959945 -20883.339681    723.807269
PG18  14029.744358   8938.632706  20751.474830   -422.961570
PG19 -15231.074796    219.574291 -21933.015785    373.869809
PG20 -19534.583507   4881.944212  17263.086912    410.996958
PG21  13952.915519 -18273.636979 -11936.306680    148.556117
PG22 -22440.721891  -8766.759058 -10400.089097    118.466805
PG23  20003.529530  16772.190159   5394.004514     70.821159
PG24  -8597.545903  19330.476004 -16178.733761   -324.268734
PG25  14387.436280  19295.609345 -11839.176549    468.657761
PG26  22453.340426    489.270904  14324.519671    227.636633
PG27  12633.986124 -15598.550185  16923.325966    -42.302273
PG28  23527.656890  -3267.032890 -11908.232803    -12.266169
PG29   4962.567746  23104.034314  11975.541946   -609.448533
PG30 -20692.241645  -3463.385348  16561.271526   -486.214274
PG31  24897.909317  -9563.052857  -2707.799850   -223.604147
PG32  14871.225044   3775.645972 -21514.139971   -560.626630
PJ02 -24559.685951  16953.060466 -25174.015920     -4.292634
PJ03 -28915.035415  30708.423049   4296.716356     -3.116333
PJ04 -25607.114910  27141.708792  25548.729098     70.691195
PR01 -13579.781390 -15634.784322  14893.350264     66.013740
PR02 -10706.016990   2091.250580  23092.788571    -22.405230
PR03  -2221.609065  18520.987593  17470.264694     85.546470
PR04   7147.269493  24377.693590   2436.344086    203.525125
PR05  12678.464160  17199.403191 -13950.203622    119.305037
PR07   1752.146202 -19020.497256 -16842.836672     65.053081
PR08  -7436.584876 -24283.117089  -2118.524836    -72.597405
PR09  23595.239096  -1075.923672   9549.222851    143.218292
PR11  -6811.008837 -11617.902611  21680.441915   -168.955062
PR12 -22722.582505  -8135.301738   8265.722363     31.477297
PR13 -24354.587261   -428.289595  -7579.540471    -39.381800
PR14 -10885.490941   8640.569562 -21377.490291     25.290028
PR15   8126.583795  11787.780403 -21085.468441     86.065406
PR16  22645.049719   8014.159690  -8516.545436     18.865272
PR17 -15018.115063  20164.811070   4153.327769     18.662617
PR18  -4187.046724  17192.765459  18405.998875    102.802732
PR19   7708.177150   6928.164539  23308.085894   -247.881705
PR20  18545.854071 -10647.784920  13890.187709   -100.343649
PR21  14755.265331 -20199.333430  -5089.688560    -39.327331
PR22   3674.416583 -16795.342650 -18814.612805     84.930900
PR24 -18432.756510  11616.914473 -13224.888706    -25.053220
PR25  15903.616974 -19542.299465  -4068.337865     32.112116
PR26  -7364.294043 -24290.765753  -2616.827586    -23.329994
EOF
